WREN-1                  
1 60478U 24149L   24271.95011369  .00021856  00000+0  10439-2 0  9995
2 60478  97.4391 346.8371 0006035 332.5576  27.5339 15.19036924  6394
TOMORROW-S1             
1 60479U 24149M   24272.48519261  .00012943  00000+0  63132-3 0  9995
2 60479  97.4365 347.3301 0002004 328.5045  31.6068 15.18433172  6472
FLOCK 4BE-18            
1 60480U 24149N   24272.48188971  .00015795  00000+0  76452-3 0  9994
2 60480  97.4379 347.3414 0004953 323.2734  36.8160 15.18648003  6477
FLOCK 4BE-7             
1 60481U 24149P   24271.95353783  .00016806  00000+0  81260-3 0  9998
2 60481  97.4408 346.8435 0003767 325.6699  34.4291 15.18676404  6392
FLOCK 4BE-4             
1 60482U 24149Q   24272.47265957  .00060875  00000+0  27912-2 0  9990
2 60482  97.4402 347.3706 0004021 319.9452  40.1486 15.20206909  6472
FLOCK 4BE-16            
1 60483U 24149R   24271.16221774  .00018548  00000+0  89527-3 0  9996
2 60483  97.4388 346.0569 0003348 332.4330  27.6726 15.18716303  6271
FLOCK 4BE-26            
1 60484U 24149S   24271.81837670  .00016177  00000+0  77936-3 0  9994
2 60484  97.4363 346.6906 0004325 329.4945  30.6038 15.18808056  6378
TOMORROW-S2             
1 60485U 24149T   24271.95479835  .00019968  00000+0  96740-3 0  9990
2 60485  97.4424 346.8491 0002333 336.0311  24.0815 15.18572624  6397
FLOCK 4BE-36            
1 60486U 24149U   24272.47775213  .00014944  00000+0  71985-3 0  9991
2 60486  97.4375 347.3419 0005475 336.2227  23.8753 15.18825610  6470
FLOCK 4BE-25            
1 60487U 24149V   24272.21185805  .00017885  00000+0  85931-3 0  9999
2 60487  97.4421 347.1174 0003098 334.0340  26.0738 15.18883618  6436
FLOCK 4BE-31            
1 60488U 24149W   24272.21100279  .00017039  00000+0  81652-3 0  9999
2 60488  97.4422 347.1194 0003635 338.1742  21.9337 15.18984760  6437
FLOCK 4BE-20            
1 60489U 24149X   24272.20993857  .00014166  00000+0  68133-3 0  9998
2 60489  97.4352 347.0771 0004396 332.5253  27.5748 15.18896874  6436
FLOCK 4BE-23            
1 60490U 24149Y   24271.94988449  .00014755  00000+0  71266-3 0  9996
2 60490  97.4415 346.8530 0004045 334.1888  25.9144 15.18741065  6399
FLOCK 4BE-15            
1 60491U 24149Z   24272.47542493  .00016340  00000+0  78539-3 0  9993
2 60491  97.4347 347.3324 0004600 338.6375  21.4667 15.18885447  6471
FLOCK 4BE-17            
1 60492U 24149AA  24271.15808174  .00015736  00000+0  75928-3 0  9996
2 60492  97.4423 346.0826 0003542 340.9721  19.1380 15.18762652  6271
NUSAT-50 (NANCY ROMAN)  
1 60493U 24149AB  24272.21022585  .00015141  00000+0  72707-3 0  9991
2 60493  97.4405 347.1117 0004215 341.2603  18.8476 15.18936119  6439
FLOCK 4BE-22            
1 60494U 24149AC  24272.21017518  .00015581  00000+0  74816-3 0  9993
2 60494  97.4368 347.0830 0005538 345.0682  15.0388 15.18927314  6435
FLOCK 4BE-34            
1 60495U 24149AD  24272.20898745  .00014404  00000+0  69228-3 0  9996
2 60495  97.4414 347.1182 0003660 341.5085  18.6015 15.18918738  6437
TYCHE                   
1 60496U 24149AE  24272.54400371  .00010134  00000+0  49394-3 0  9996
2 60496  97.4399 347.4244 0004521 352.3516   7.7649 15.18516234  6480
FLOCK 4BE-32            
1 60497U 24149AF  24271.47907234  .00016360  00000+0  78025-3 0  9998
2 60497  97.4352 346.3712 0004927 347.6905  12.4208 15.19155058  6328
NUSAT-48 (HENRIETTA LE*)
1 60498U 24149AG  24271.48286110  .00016204  00000+0  77611-3 0  9990
2 60498  97.4371 346.3785 0005326 353.7224   6.3943 15.19007536  6321
FLOCK 4BE-30            
1 60499U 24149AH  24271.94208823  .00017796  00000+0  84945-3 0  9992
2 60499  97.4426 346.8699 0003761 351.7806   8.3366 15.19112140  5774
NUSAT-49 (KLARA DAN VO*)
1 60500U 24149AJ  24272.47004497  .00014723  00000+0  70453-3 0  9991
2 60500  97.4402 347.3742 0004038 347.7093  12.4043 15.19066280  6476
FLOCK 4BE-11            
1 60501U 24149AK  24271.94108257  .00015868  00000+0  75739-3 0  9995
2 60501  97.4356 346.8250 0005322 351.8865   8.2283 15.19132606  6399
FLOCK 4BE-33            
1 60502U 24149AL  24271.47842063  .00014800  00000+0  70755-3 0  9992
2 60502  97.4368 346.3798 0005170 359.3202   0.8025 15.19092810  6321
FLOCK 4BE-10            
1 60503U 24149AM  24272.07150687  .00015102  00000+0  72098-3 0  9992
2 60503  97.4420 347.0006 0003396 357.3163   2.8052 15.19142501  6418
YAM-7                   
1 60504U 24149AN  24271.48032214  .00012405  00000+0  59650-3 0  9994
2 60504  97.4401 346.4031 0004135   8.4989 351.6315 15.18936337  6325
FLOCK 4BE-24            
1 60505U 24149AP  24271.93310728  .00016726  00000+0  79064-3 0  9995
2 60505  97.4350 346.8341 0005463 359.0731   1.0493 15.19455481  6399
LUR-1                   
1 60506U 24149AQ  24272.07240030  .00012246  00000+0  58922-3 0  9993
2 60506  97.4387 346.9751 0004846  12.3001 347.8350 15.18915672  6417
TANAGER-1               
1 60507U 24149AR  24271.47463474  .00016853  00000+0  79669-3 0  9995
2 60507  97.4380 346.3982 0005059   5.6861 354.4430 15.19454576  6322
EAGLEEYE                
1 60508U 24149AS  24272.12467503  .00022997  00000+0  10701-2 0  9993
2 60508  97.4378 347.0485 0004763   3.8093 356.3177 15.19936190  6421
FLOCK 4BE-29            
1 60509U 24149AT  24271.66757835  .00018174  00000+0  85603-3 0  9998
2 60509  97.4425 346.6256 0004185  12.9568 347.1774 15.19567416  6356
2024-149AU              
1 60510U 24149AU  24271.66900275  .00016588  00000+0  78443-3 0  9999
2 60510  97.4362 346.5825 0005225  12.9298 347.2069 15.19444547  6352
FLOCK 4BE-2             
1 60511U 24149AV  24271.46502207  .00017807  00000+0  83468-3 0  9999
2 60511  97.4429 346.4384 0004206  16.2758 343.8611 15.19738988  6329
FLOCK 4BE-13            
1 60512U 24149AW  24271.46971797  .00016981  00000+0  80193-3 0  9998
2 60512  97.4342 346.3815 0005876   3.6180 356.5096 15.19482774  6322
FLOCK 4BE-27            
1 60513U 24149AX  24271.66670838  .00012491  00000+0  59329-3 0  9992
2 60513  97.4429 346.6244 0005426  21.0187 339.1270 15.19357258  6352
FLOCK 4BE-9             
1 60514U 24149AY  24271.46574453  .00016016  00000+0  75393-3 0  9993
2 60514  97.4410 346.4267 0004243  24.0583 336.0849 15.19615299  6322
FLOCK 4BE-8             
1 60515U 24149AZ  24271.72966913  .00021594  00000+0  10152-2 0  9997
2 60515  97.4363 346.6525 0005908  14.0899 346.0499 15.19587850  6364
FLOCK 4BE-6             
1 60516U 24149BA  24271.46486973  .00014037  00000+0  66161-3 0  9998
2 60516  97.4415 346.4300 0004702  23.7610 336.3841 15.19598928  6328
FLOCK 4BE-14            
1 60517U 24149BB  24271.19527320  .00015186  00000+0  70884-3 0  9994
2 60517  97.4359 346.1475 0006176  13.4618 346.6780 15.19911222  6284
FLOCK 4BE-1             
1 60518U 24149BC  24272.18434369  .00015561  00000+0  72659-3 0  9994
2 60518  97.4407 347.1451 0005450  16.2315 343.9093 15.19897849  6435
FLOCK 4BE-28            
1 60519U 24149BD  24271.65885729  .00016994  00000+0  79349-3 0  9990
2 60519  97.4371 346.6050 0006939  12.2747 347.8656 15.19870892  6351
IPERDRONE.0             
1 60520U 24149BE  24271.18971835  .00024528  00000+0  11246-2 0  9997
2 60520  97.4376 346.1644 0006420   9.1264 351.0087 15.20423805  6283
2024-149BF              
1 60521U 24149BF  24271.64545129  .00024277  00000+0  11038-2 0  9992
2 60521  97.4398 346.6365 0006221  10.0010 350.1348 15.20716593  6359
CONNECTA IOT-2          
1 60522U 24149BG  24271.65833731  .00010772  00000+0  50859-3 0  9993
2 60522  97.4422 346.6311 0007416  18.9756 341.1754 15.19591274  6356
PTD-R (TYVAK-0127)      
1 60523U 24149BH  24271.96885020  .00029853  00000+0  13426-2 0  9994
2 60523  97.4355 346.9430 0006906   2.2267 357.8998 15.21043441  6404
CONNECTA IOT-4          
1 60524U 24149BJ  24272.18413248  .00008871  00000+0  41920-3 0  9997
2 60524  97.4385 347.1308 0008019  11.0346 349.1063 15.19611459  6435
2024-149BK              
1 60525U 24149BK  24271.44998192  .00017884  00000+0  82401-3 0  9995
2 60525  97.4336 346.4077 0008355   4.9551 355.1765 15.20308070  6327
DEIMOS                  
1 60526U 24149BL  24272.10713693  .00018421  00000+0  84740-3 0  9997
2 60526  97.4400 347.0912 0008327   7.9727 352.1639 15.20357216  6426
CUAVA-2                 
1 60527U 24149BM  24271.18601200  .00017102  00000+0  78940-3 0  9995
2 60527  97.4350 346.1554 0008694   4.8096 355.3221 15.20252912  6288
ERNST                   
1 60528U 24149BN  24272.50958267  .00011094  00000+0  52051-3 0  9990
2 60528  97.4411 347.4757 0008880  10.2694 349.8720 15.19791407  6487
GAINDESAT-1A            
1 60529U 24149BP  24272.48507675  .00028545  00000+0  12654-2 0  9994
2 60529  97.4423 347.5129 0008049   1.0091 359.1160 15.21538797  6487
TORO                    
1 60530U 24149BQ  24272.16568560  .00006061  00000+0  60850-3 0  9992
2 60530  97.7443 346.8927 0001226  99.1269 261.0088 14.91646231  6307
HYPSO-2                 
1 60531U 24149BR  24271.62650577  .00008874  00000+0  88380-3 0  9995
2 60531  97.7438 346.3668 0000809 118.3283 241.8017 14.91836847  6228
LEMU-NGE                
1 60532U 24149BS  24272.16045114  .00007116  00000+0  70901-3 0  9999
2 60532  97.7466 346.9119 0001143  78.3578 281.7769 14.91891601  6306
LEMUR-2-STELLA          
1 60533U 24149BT  24271.47771284  .00017847  00000+0  17282-2 0  9991
2 60533  97.7411 346.2431 0000337 225.6342 134.4849 14.92785081  6204
SATELIOT_2              
1 60534U 24149BU  24272.49553826  .00004619  00000+0  46290-3 0  9990
2 60534  97.7463 347.2402 0001717  81.1122 279.0292 14.91844579  6367
NIGHTJAR                
1 60535U 24149BV  24272.09064247  .00008694  00000+0  86178-3 0  9997
2 60535  97.7481 346.8591 0001923  78.8370 281.3065 14.92032300 49104
LEMUR-2-MARHISYAM       
1 60536U 24149BW  24272.48234390  .00015576  00000+0  15095-2 0  9995
2 60536  97.7393 347.2216 0000509 331.6122  28.5070 14.92783962  6354
